[{"OBJECT_NAME":"STARLINK-2439","OBJECT_ID":"2021-027N","EPOCH":"2026-03-09T12:15:33.450912","MEAN_MOTION":15.30194399,"ECCENTRICITY":0.00014292,"INCLINATION":53.1599,"RA_OF_ASC_NODE":153.6,"ARG_OF_PERICENTER":70.5562,"MEAN_ANOMALY":289.5594,"EPHEMERIS_TYPE":0,"CLASSIFICATION_TYPE":"U","NORAD_CAT_ID":48104,"ELEMENT_SET_NO":999,"REV_AT_EPOCH":27266,"BSTAR":0.00023865862,"MEAN_MOTION_DOT":6.714e-5,"MEAN_MOTION_DDOT":0},{"OBJECT_NAME":"SL-4 R\/B","OBJECT_ID":"2014-021B","EPOCH":"2026-03-09T02:37:43.173408","MEAN_MOTION":15.39160447,"ECCENTRICITY":0.00975963,"INCLINATION":51.6078,"RA_OF_ASC_NODE":340.109,"ARG_OF_PERICENTER":100.9217,"MEAN_ANOMALY":260.2766,"EPHEMERIS_TYPE":0,"CLASSIFICATION_TYPE":"U","NORAD_CAT_ID":39679,"ELEMENT_SET_NO":999,"REV_AT_EPOCH":65618,"BSTAR":0.00043042763,"MEAN_MOTION_DOT":0.00019652,"MEAN_MOTION_DDOT":0}]
